start=new Date('2022-06-27T00:00:00.000Z').valueOf();
sats=[{"RCS_SIZE":"LARGE","OBJECT_TYPE":"PAYLOAD","PERIOD":"95.593","MEAN_ANOMALY":"313.6856","REV_AT_EPOCH":"9363","SEMIMAJOR_AXIS":"6925.383","RA_OF_ASC_NODE":"170.9043","BSTAR":"0.00008730000000","INCLINATION":"53.0550","CENTER_NAME":"EARTH","EPHEMERIS_TYPE":"0","OBJECT_ID":"2020-073T","MEAN_MOTION_DDOT":"0.0000000000000","ELEMENT_SET_NO":"999","TLE_LINE2":"2 46687  53.0550 170.9043 0002410  46.4333 313.6856 15.06388837 93637","COUNTRY_CODE":"US","FILE":"3503441","REF_FRAME":"TEME","LAUNCH_DATE":"2020-10-18","DECAY_DATE":null,"NORAD_CAT_ID":"46687","SITE":"AFETR","PERIAPSIS":"545.579","ARG_OF_PERICENTER":"46.4333","TLE_LINE1":"1 46687U 20073T   22177.70841096  .00001018  00000-0  87300-4 0  9999","MEAN_ELEMENT_THEORY":"SGP4","CLASSIFICATION_TYPE":"U","GP_ID":"206925038","MEAN_MOTION_DOT":"0.00001018","EPOCH":"2022-06-26T17:00:06.706944","OBJECT_NAME":"STARLINK-1784","MEAN_MOTION":"15.06388837","ECCENTRICITY":"0.00024100","TIME_SYSTEM":"UTC","APOAPSIS":"548.917"},{"APOAPSIS":"548.354","TIME_SYSTEM":"UTC","ECCENTRICITY":"0.00016830","MEAN_MOTION":"15.06408149","EPOCH":"2022-06-26T19:10:48.637920","OBJECT_NAME":"STARLINK-1788","MEAN_MOTION_DOT":"0.00001947","GP_ID":"206926288","CLASSIFICATION_TYPE":"U","MEAN_ELEMENT_THEORY":"SGP4","TLE_LINE1":"1 46689U 20073V   22177.79917405  .00001947  00000-0  14951-3 0  9990","PERIAPSIS":"546.023","SITE":"AFETR","ARG_OF_PERICENTER":"52.6220","NORAD_CAT_ID":"46689","DECAY_DATE":null,"LAUNCH_DATE":"2020-10-18","REF_FRAME":"TEME","COUNTRY_CODE":"US","TLE_LINE2":"2 46689  53.0530 205.4944 0001683  52.6220 307.4922 15.06408149 94406","FILE":"3503441","ELEMENT_SET_NO":"999","MEAN_MOTION_DDOT":"0.0000000000000","OBJECT_ID":"2020-073V","CENTER_NAME":"EARTH","EPHEMERIS_TYPE":"0","INCLINATION":"53.0530","BSTAR":"0.00014951000000","RA_OF_ASC_NODE":"205.4944","REV_AT_EPOCH":"9440","SEMIMAJOR_AXIS":"6925.324","MEAN_ANOMALY":"307.4922","PERIOD":"95.592","OBJECT_TYPE":"PAYLOAD","RCS_SIZE":"LARGE"},{"SEMIMAJOR_AXIS":"6925.358","REV_AT_EPOCH":"9349","RA_OF_ASC_NODE":"180.7860","BSTAR":"0.00002279300000","INCLINATION":"53.0549","RCS_SIZE":"LARGE","OBJECT_TYPE":"PAYLOAD","PERIOD":"95.592","MEAN_ANOMALY":"283.6893","ELEMENT_SET_NO":"999","TLE_LINE2":"2 46690  53.0549 180.7860 0001536  76.4267 283.6893 15.06396871 93490","COUNTRY_CODE":"US","FILE":"3503441","REF_FRAME":"TEME","LAUNCH_DATE":"2020-10-18","EPHEMERIS_TYPE":"0","CENTER_NAME":"EARTH","OBJECT_ID":"2020-073W","MEAN_MOTION_DDOT":"0.0000000000000","GP_ID":"206924765","MEAN_MOTION_DOT":"0.00000058","NORAD_CAT_ID":"46690","DECAY_DATE":null,"SITE":"AFETR","ARG_OF_PERICENTER":"76.4267","PERIAPSIS":"546.159","TLE_LINE1":"1 46690U 20073W   22177.73328651  .00000058  00000-0  22793-4 0  9991","CLASSIFICATION_TYPE":"U","MEAN_ELEMENT_THEORY":"SGP4","ECCENTRICITY":"0.00015360","TIME_SYSTEM":"UTC","APOAPSIS":"548.287","OBJECT_NAME":"STARLINK-1789","EPOCH":"2022-06-26T17:35:55.954464","MEAN_MOTION":"15.06396871"},{"ECCENTRICITY":"0.00017430","TIME_SYSTEM":"UTC","APOAPSIS":"548.444","EPOCH":"2022-06-26T17:34:36.541632","OBJECT_NAME":"STARLINK-1790","MEAN_MOTION":"15.06392262","GP_ID":"206924788","MEAN_MOTION_DOT":"0.00001066","CLASSIFICATION_TYPE":"U","MEAN_ELEMENT_THEORY":"SGP4","SITE":"AFETR","PERIAPSIS":"546.030","ARG_OF_PERICENTER":"57.8708","TLE_LINE1":"1 46691U 20073X   22177.73236738  .00001066  00000-0  90501-4 0  9998","DECAY_DATE":null,"NORAD_CAT_ID":"46691","LAUNCH_DATE":"2020-10-18","REF_FRAME":"TEME","ELEMENT_SET_NO":"999","COUNTRY_CODE":"US","TLE_LINE2":"2 46691  53.0532 190.7961 0001743  57.8708 302.2450 15.06392262 93351","FILE":"3503441","MEAN_MOTION_DDOT":"0.0000000000000","OBJECT_ID":"2020-073X","CENTER_NAME":"EARTH","EPHEMERIS_TYPE":"0","INCLINATION":"53.0532","BSTAR":"0.00009050100000","SEMIMAJOR_AXIS":"6925.372","REV_AT_EPOCH":"9335","RA_OF_ASC_NODE":"190.7961","MEAN_ANOMALY":"302.2450","PERIOD":"95.593","RCS_SIZE":"LARGE","OBJECT_TYPE":"PAYLOAD"},{"LAUNCH_DATE":"2020-10-18","REF_FRAME":"TEME","ELEMENT_SET_NO":"999","COUNTRY_CODE":"US","TLE_LINE2":"2 46692  53.0537 207.0373 0001493  57.4503 302.6630 15.06396796 93100","FILE":"3503181","MEAN_MOTION_DDOT":"0.0000000000000","OBJECT_ID":"2020-073Y","EPHEMERIS_TYPE":"0","CENTER_NAME":"EARTH","INCLINATION":"53.0537","BSTAR":"0.00010506000000","REV_AT_EPOCH":"9310","SEMIMAJOR_AXIS":"6925.358","RA_OF_ASC_NODE":"207.0373","MEAN_ANOMALY":"302.6630","PERIOD":"95.592","RCS_SIZE":"LARGE","OBJECT_TYPE":"PAYLOAD","ECCENTRICITY":"0.00014930","APOAPSIS":"548.257","TIME_SYSTEM":"UTC","EPOCH":"2022-06-26T10:51:52.642368","OBJECT_NAME":"STARLINK-1791","MEAN_MOTION":"15.06396796","GP_ID":"206894707","MEAN_MOTION_DOT":"0.00001284","CLASSIFICATION_TYPE":"U","MEAN_ELEMENT_THEORY":"SGP4","ARG_OF_PERICENTER":"57.4503","SITE":"AFETR","PERIAPSIS":"546.189","TLE_LINE1":"1 46692U 20073Y   22177.45269262  .00001284  00000-0  10506-3 0  9994","DECAY_DATE":null,"NORAD_CAT_ID":"46692"},{"MEAN_MOTION":"15.06388180","EPOCH":"2022-06-26T17:39:55.608192","OBJECT_NAME":"STARLINK-1792","APOAPSIS":"548.669","TIME_SYSTEM":"UTC","ECCENTRICITY":"0.00020490","CLASSIFICATION_TYPE":"U","MEAN_ELEMENT_THEORY":"SGP4","NORAD_CAT_ID":"46693","DECAY_DATE":null,"TLE_LINE1":"1 46693U 20073Z   22177.73606028  .00000937  00000-0  81810-4 0  9992","PERIAPSIS":"545.831","SITE":"AFETR","ARG_OF_PERICENTER":"51.0671","MEAN_MOTION_DOT":"0.00000937","GP_ID":"206925789","MEAN_MOTION_DDOT":"0.0000000000000","CENTER_NAME":"EARTH","EPHEMERIS_TYPE":"0","OBJECT_ID":"2020-073Z","REF_FRAME":"TEME","LAUNCH_DATE":"2020-10-18","TLE_LINE2":"2 46693  53.0546 190.7834 0002049  51.0671 309.0500 15.06388180 93357","COUNTRY_CODE":"US","FILE":"3503441","ELEMENT_SET_NO":"999","PERIOD":"95.593","MEAN_ANOMALY":"309.0500","OBJECT_TYPE":"PAYLOAD","RCS_SIZE":"LARGE","BSTAR":"0.00008181000000","INCLINATION":"53.0546","RA_OF_ASC_NODE":"190.7834","SEMIMAJOR_AXIS":"6925.385","REV_AT_EPOCH":"9335"},{"OBJECT_NAME":"STARLINK-1793","EPOCH":"2022-06-26T16:38:52.856448","MEAN_MOTION":"15.06390151","ECCENTRICITY":"0.00016050","TIME_SYSTEM":"UTC","APOAPSIS":"548.355","MEAN_ELEMENT_THEORY":"SGP4","CLASSIFICATION_TYPE":"U","SITE":"AFETR","ARG_OF_PERICENTER":"93.6829","PERIAPSIS":"546.132","TLE_LINE1":"1 46694U 20073AA  22177.69366732 -.00000809  00000-0 -35456-4 0  9998","DECAY_DATE":null,"NORAD_CAT_ID":"46694","GP_ID":"206925265","MEAN_MOTION_DOT":"-0.00000809","MEAN_MOTION_DDOT":"0.0000000000000","OBJECT_ID":"2020-073AA","EPHEMERIS_TYPE":"0","CENTER_NAME":"EARTH","LAUNCH_DATE":"2020-10-18","REF_FRAME":"TEME","ELEMENT_SET_NO":"999","FILE":"3503441","TLE_LINE2":"2 46694  53.0545 170.9790 0001605  93.6829 266.4343 15.06390151 93635","COUNTRY_CODE":"US","MEAN_ANOMALY":"266.4343","PERIOD":"95.593","RCS_SIZE":"LARGE","OBJECT_TYPE":"PAYLOAD","INCLINATION":"53.0545","BSTAR":"-0.00003545600000","SEMIMAJOR_AXIS":"6925.379","REV_AT_EPOCH":"9363","RA_OF_ASC_NODE":"170.9790"},{"TIME_SYSTEM":"UTC","APOAPSIS":"548.697","ECCENTRICITY":"0.00020880","MEAN_MOTION":"15.06387684","OBJECT_NAME":"STARLINK-1795","EPOCH":"2022-06-26T17:05:26.199456","MEAN_MOTION_DOT":"0.00000953","GP_ID":"206925287","MEAN_ELEMENT_THEORY":"SGP4","CLASSIFICATION_TYPE":"U","TLE_LINE1":"1 46696U 20073AC  22177.71210879  .00000953  00000-0  82900-4 0  9997","ARG_OF_PERICENTER":"51.5683","SITE":"AFETR","PERIAPSIS":"545.805","NORAD_CAT_ID":"46696","DECAY_DATE":null,"LAUNCH_DATE":"2020-10-18","REF_FRAME":"TEME","FILE":"3503441","TLE_LINE2":"2 46696  53.0552 170.8895 0002088  51.5683 308.5494 15.06387684 93639","COUNTRY_CODE":"US","ELEMENT_SET_NO":"999","MEAN_MOTION_DDOT":"0.0000000000000","OBJECT_ID":"2020-073AC","EPHEMERIS_TYPE":"0","CENTER_NAME":"EARTH","INCLINATION":"53.0552","BSTAR":"0.00008290000000","RA_OF_ASC_NODE":"170.8895","SEMIMAJOR_AXIS":"6925.386","REV_AT_EPOCH":"9363","MEAN_ANOMALY":"308.5494","PERIOD":"95.593","OBJECT_TYPE":"PAYLOAD","RCS_SIZE":"LARGE"},{"MEAN_ELEMENT_THEORY":"SGP4","CLASSIFICATION_TYPE":"U","SITE":"AFETR","ARG_OF_PERICENTER":"72.9468","PERIAPSIS":"546.285","TLE_LINE1":"1 46698U 20073AE  22177.76829578  .00000908  00000-0  79884-4 0  9993","NORAD_CAT_ID":"46698","DECAY_DATE":null,"GP_ID":"206925039","MEAN_MOTION_DOT":"0.00000908","EPOCH":"2022-06-26T18:26:20.755392","OBJECT_NAME":"STARLINK-1797","MEAN_MOTION":"15.06387014","ECCENTRICITY":"0.00013980","TIME_SYSTEM":"UTC","APOAPSIS":"548.222","MEAN_ANOMALY":"287.1674","PERIOD":"95.593","RCS_SIZE":"LARGE","OBJECT_TYPE":"PAYLOAD","INCLINATION":"53.0541","BSTAR":"0.00007988400000","REV_AT_EPOCH":"9336","SEMIMAJOR_AXIS":"6925.388","RA_OF_ASC_NODE":"190.6160","MEAN_MOTION_DDOT":"0.0000000000000","OBJECT_ID":"2020-073AE","EPHEMERIS_TYPE":"0","CENTER_NAME":"EARTH","LAUNCH_DATE":"2020-10-18","REF_FRAME":"TEME","ELEMENT_SET_NO":"999","TLE_LINE2":"2 46698  53.0541 190.6160 0001398  72.9468 287.1674 15.06387014 93364","COUNTRY_CODE":"US","FILE":"3503441"},{"MEAN_MOTION_DOT":"-0.00000661","GP_ID":"206926289","TLE_LINE1":"1 46699U 20073AF  22177.77291047 -.00000661  00000-0 -25462-4 0  9990","SITE":"AFETR","PERIAPSIS":"546.134","ARG_OF_PERICENTER":"56.2861","DECAY_DATE":null,"NORAD_CAT_ID":"46699","MEAN_ELEMENT_THEORY":"SGP4","CLASSIFICATION_TYPE":"U","TIME_SYSTEM":"UTC","APOAPSIS":"548.322","ECCENTRICITY":"0.00015800","MEAN_MOTION":"15.06395206","OBJECT_NAME":"STARLINK-1799","EPOCH":"2022-06-26T18:32:59.464608","RA_OF_ASC_NODE":"190.6160","REV_AT_EPOCH":"9336","SEMIMAJOR_AXIS":"6925.363","INCLINATION":"53.0532","BSTAR":"-0.00002546200000","OBJECT_TYPE":"PAYLOAD","RCS_SIZE":"LARGE","MEAN_ANOMALY":"303.8279","PERIOD":"95.592","FILE":"3503441","TLE_LINE2":"2 46699  53.0532 190.6160 0001580  56.2861 303.8279 15.06395206 93369","COUNTRY_CODE":"US","ELEMENT_SET_NO":"999","LAUNCH_DATE":"2020-10-18","REF_FRAME":"TEME","OBJECT_ID":"2020-073AF","EPHEMERIS_TYPE":"0","CENTER_NAME":"EARTH","MEAN_MOTION_DDOT":"0.0000000000000"}];
